NORAD_CAT_ID,OBJECT_NAME,OBJECT_TYPE,EPOCH,MEAN_MOTION,ECCENTRICITY,INCLINATION,RA_OF_ASC_NODE,ARG_OF_PERICENTER,MEAN_ANOMALY,BSTAR,MEAN_MOTION_DOT,MEAN_MOTION_DDOT,TLE_LINE0,TLE_LINE1,TLE_LINE2,SEMIMAJOR_AXIS,PERIOD,APOGEE,PERIGEE,DECAYED
49455.0,STARLINK-3145,PAYLOAD,2022-07-18 21:24:17,15.08844794,0.0001992,53.2176,68.809,49.1298,310.9867,0.000241,3.55e-05,0.0,0 STARLINK-3145,1 49455U 21104AZ  22199.89187159  .00003550  00000-0  24100-3 0  9999,2 49455  53.2176  68.8090 0001992  49.1298 310.9867 15.08844794 38025,6917.866,95.437,541.109,538.3530000000002,0.0
49455.0,STARLINK-3145,PAYLOAD,2022-07-19 08:32:00,15.08836441,0.0002052,53.2175,66.7277,45.5658,314.5502,0.00018092,2.592e-05,0.0,0 STARLINK-3145,1 49455U 21104AZ  22200.35555664  .00002592  00000-0  18092-3 0  9991,2 49455  53.2175  66.7277 0002052  45.5658 314.5502 15.08836441 38099,6917.891,95.438,541.1759999999998,538.337,0.0
49455.0,STARLINK-3145,PAYLOAD,2022-07-19 21:15:04,15.08848934,0.000208,53.2177,64.3486,38.4248,321.6892,0.00029576,4.423e-05,0.0,0 STARLINK-3145,1 49455U 21104AZ  22200.88547107  .00004423  00000-0  29576-3 0  9996,2 49455  53.2177  64.3486 0002080  38.4248 321.6892 15.08848934 39243,6917.853,95.437,541.1569999999998,538.279,0.0
49455.0,STARLINK-3145,PAYLOAD,2022-07-20 13:08:55,15.08849857,0.0002026999999999,53.2179,61.3751,42.3605,317.7544,0.00024039,3.541e-05,0.0,0 STARLINK-3145,1 49455U 21104AZ  22201.54786907  .00003541  00000-0  24039-3 0  9992,2 49455  53.2179  61.3751 0002027  42.3605 317.7544 15.08849857 38276,6917.85,95.437,541.118,538.313,0.0
49455.0,STARLINK-3145,PAYLOAD,2022-07-20 19:30:28,15.08843817,0.0002056999999999,53.2181,60.1855,42.078,318.0370000000001,8.4114e-05,1.051e-05,0.0,0 STARLINK-3145,1 49455U 21104AZ  22201.81283133  .00001051  00000-0  84114-4 0  9990,2 49455  53.2181  60.1855 0002057  42.0780 318.0370 15.08843817 39389,6917.869000000002,95.437,541.1569999999998,538.311,0.0
49455.0,STARLINK-3145,PAYLOAD,2022-07-20 21:05:51,15.08845059,0.0002096,53.2179,59.8882,40.5039,319.6109,6.6522e-05,7.71e-06,0.0,0 STARLINK-3145,1 49455U 21104AZ  22201.87907030  .00000771  00000-0  66522-4 0  9996,2 49455  53.2179  59.8882 0002096  40.5039 319.6109 15.08845059 38324,6917.865,95.437,541.18,538.28,0.0
49455.0,STARLINK-3145,PAYLOAD,2022-07-21 00:16:37,15.08843531,0.0002024,53.218,59.2934,42.8103,317.3046,4.5274e-05,4.32e-06,0.0,0 STARLINK-3145,1 49455U 21104AZ  22202.01155072  .00000432  00000-0  45274-4 0  9999,2 49455  53.2180  59.2934 0002024  42.8103 317.3046 15.08843531 38346,6917.87,95.437,541.135,538.3340000000002,0.0
49455.0,STARLINK-3145,PAYLOAD,2022-07-21 20:56:40,15.08823974,0.000197,53.2176,55.4274,42.035,318.0793,-0.00017098,-3.007e-05,0.0,0 STARLINK-3145,1 49455U 21104AZ  22202.87268767 -.00003007  00000-0 -17098-3 0  9994,2 49455  53.2176  55.4274 0001970  42.0350 318.0793 15.08823974 39540,6917.929,95.439,541.1569999999998,538.432,0.0
49455.0,STARLINK-3145,PAYLOAD,2022-07-22 00:07:26,15.08825158,0.0001979,53.2179,54.8328,40.5611,319.5528,-0.00015312,-2.723e-05,0.0,0 STARLINK-3145,1 49455U 21104AZ  22203.00516820 -.00002723  00000-0 -15312-3 0  9997,2 49455  53.2179  54.8328 0001979  40.5611 319.5528 15.08825158 38499,6917.926,95.438,541.16,538.422,0.0
49455.0,STARLINK-3145,PAYLOAD,2022-07-22 20:47:27,15.08836668,0.0002017,53.2181,50.9674,43.9626,316.1526,2.2091e-05,6.3e-07,0.0,0 STARLINK-3145,1 49455U 21104AZ  22203.86628936  .00000063  00000-0  22091-4 0  9999,2 49455  53.2181  50.9674 0002017  43.9626 316.1526 15.08836668 38624,6917.891,95.438,541.151,538.36,0.0
49455.0,STARLINK-3145,PAYLOAD,2022-07-23 06:19:46,15.08838787,0.0001964,53.2182,49.1834,43.5682,316.5465,0.00020093,2.911e-05,0.0,0 STARLINK-3145,1 49455U 21104AZ  22204.26373108  .00002911  00000-0  20093-3 0  9995,2 49455  53.2182  49.1834 0001964  43.5682 316.5465 15.08838787 39756,6917.884,95.438,541.1080000000002,538.39,0.0
49455.0,STARLINK-3145,PAYLOAD,2022-07-23 12:41:19,15.08839855,0.0001966999999999,53.2181,47.9939,43.5207,316.594,0.0003758,5.698e-05,0.0,0 STARLINK-3145,1 49455U 21104AZ  22204.52869249  .00005698  00000-0  37580-3 0  9994,2 49455  53.2181  47.9939 0001967  43.5207 316.5940 15.08839855 38724,6917.880999999999,95.438,541.107,538.385,0.0
49455.0,STARLINK-3145,PAYLOAD,2022-07-23 20:38:15,15.08834811,0.0001958,53.2182,46.5071,41.5361,318.578,0.00018156,2.602e-05,0.0,0 STARLINK-3145,1 49455U 21104AZ  22204.85989724  .00002602  00000-0  18156-3 0  9991,2 49455  53.2182  46.5071 0001958  41.5361 318.5780 15.08834811 38772,6917.896,95.438,541.116,538.4069999999998,0.0
49455.0,STARLINK-3145,PAYLOAD,2022-07-24 12:32:06,15.08844616,0.0001938,53.2183,43.5335,42.9078,317.2065,0.00017223,2.454e-05,0.0,0 STARLINK-3145,1 49455U 21104AZ  22205.52229324  .00002454  00000-0  17223-3 0  9998,2 49455  53.2183  43.5335 0001938  42.9078 317.2065 15.08844616 38878,6917.866,95.437,541.072,538.391,0.0
49455.0,STARLINK-3145,PAYLOAD,2022-07-24 20:29:01,15.08847852,0.0001937,53.2182,42.0468,43.3451,316.7693,0.00014696,2.052e-05,0.0,0 STARLINK-3145,1 49455U 21104AZ  22205.85349023  .00002052  00000-0  14696-3 0  9998,2 49455  53.2182  42.0468 0001937  43.3451 316.7693 15.08847852 38929,6917.856,95.437,541.061,538.381,0.0
49455.0,STARLINK-3145,PAYLOAD,2022-07-25 12:22:53,15.08839165,0.0001815,53.2182,39.073,40.8518,319.261,3.2164e-06,-2.37e-06,0.0,0 STARLINK-3145,1 49455U 21104AZ  22206.51589437 -.00000237  00000-0  32164-5 0  9993,2 49455  53.2182  39.0730 0001815  40.8518 319.2610 15.08839165 40094,6917.8830000000025,95.438,541.004,538.492,0.0
49455.0,STARLINK-3145,PAYLOAD,2022-07-25 13:58:16,15.088322,0.0001791,53.2182,38.7756,40.5148,319.5977,0.00022275,3.258e-05,0.0,0 STARLINK-3145,1 49455U 21104AZ  22206.58213868  .00003258  00000-0  22275-3 0  9997,2 49455  53.2182  38.7756 0001791  40.5148 319.5977 15.08832200 39031,6917.904,95.438,541.008,538.53,0.0
49455.0,STARLINK-3145,PAYLOAD,2022-07-26 12:13:40,15.08846251,0.0001894,53.2189,34.6122,43.9647,316.1496,0.00011564,1.553e-05,0.0,0 STARLINK-3145,1 49455U 21104AZ  22207.50949214  .00001553  00000-0  11564-3 0  9996,2 49455  53.2189  34.6122 0001894  43.9647 316.1496 15.08846251 39170,6917.861,95.437,541.0369999999998,538.4159999999998,0.0
49455.0,STARLINK-3145,PAYLOAD,2022-07-26 16:59:49,15.08849495,0.0001899999999999,53.219,33.7204,45.3743,314.7404,0.00012898,1.766e-05,0.0,0 STARLINK-3145,1 49455U 21104AZ  22207.70820917  .00001766  00000-0  12898-3 0  9993,2 49455  53.2190  33.7204 0001900  45.3743 314.7404 15.08849495 40273,6917.851,95.437,541.031,538.4019999999998,0.0
49455.0,STARLINK-3145,PAYLOAD,2022-07-26 20:10:35,15.08849619,0.0001942,53.2182,33.1258,43.6304,316.4841,0.00015876,2.24e-05,0.0,0 STARLINK-3145,1 49455U 21104AZ  22207.84068861  .00002240  00000-0  15876-3 0  9997,2 49455  53.2182  33.1258 0001942  43.6304 316.4841 15.08849619 39222,6917.851,95.437,541.059,538.373,0.0
49455.0,STARLINK-3145,PAYLOAD,2022-07-27 12:04:26,15.08846265,0.0001954,53.218,30.1523,43.9784,316.1363,0.00015987,2.258e-05,0.0,0 STARLINK-3145,1 49455U 21104AZ  22208.50308884  .00002258  00000-0  15987-3 0  9995,2 49455  53.2180  30.1523 0001954  43.9784 316.1363 15.08846265 40390,6917.861,95.437,541.078,538.374,0.0
49455.0,STARLINK-3145,PAYLOAD,2022-07-27 18:25:59,15.08843496,0.0001924,53.2181,28.9627,44.0304,316.0841,0.00010484,1.381e-05,0.0,0 STARLINK-3145,1 49455U 21104AZ  22208.76804970  .00001381  00000-0  10484-3 0  9993,2 49455  53.2181  28.9627 0001924  44.0304 316.0841 15.08843496 39366,6917.87,95.437,541.066,538.404,0.0
49455.0,STARLINK-3145,PAYLOAD,2022-07-28 11:55:13,15.08849661,0.0001945,53.2184,25.6917,44.4052,315.7096,0.00010928,1.452e-05,0.0,0 STARLINK-3145,1 49455U 21104AZ  22209.49668430  .00001452  00000-0  10928-3 0  9995,2 49455  53.2184  25.6917 0001945  44.4052 315.7096 15.08849661 39472,6917.851,95.437,541.061,538.37,0.0
49455.0,STARLINK-3145,PAYLOAD,2022-07-28 18:16:46,15.08842186,0.0002203,53.218,24.5039,29.3403,330.7713,1.3978e-05,-6.6e-07,0.0,0 STARLINK-3145,1 49455U 21104AZ  22209.76164928 -.00000066  00000-0  13978-4 0  9998,2 49455  53.2180  24.5039 0002203  29.3403 330.7713 15.08842186 39514,6917.874,95.437,541.263,538.215,0.0
49455.0,STARLINK-3145,PAYLOAD,2022-07-28 21:27:32,15.08839466,0.0002059,53.2186,23.9096,36.1031,324.01,2.3984e-06,-2.5e-06,0.0,0 STARLINK-3145,1 49455U 21104AZ  22209.89413074 -.00000250  00000-0  23984-5 0  9995,2 49455  53.2186  23.9096 0002059  36.1031 324.0100 15.08839466 40603,6917.882,95.438,541.1709999999998,538.323,0.0
49455.0,STARLINK-3145,PAYLOAD,2022-07-29 11:46:00,15.0885945,0.0002207,53.2182,21.234,26.7545,333.356,-0.00029685,-5.012e-05,0.0,0 STARLINK-3145,1 49455U 21104AZ  22210.49028770 -.00005012  00000-0 -29685-3 0  9992,2 49455  53.2182  21.2340 0002207  26.7545 333.3560 15.08859450 39620,6917.821,95.436,541.2130000000002,538.159,0.0
49455.0,STARLINK-3145,PAYLOAD,2022-07-29 19:42:56,15.08840725,0.0001858,53.2193,19.7458,40.3819,319.7311,6.289e-05,7.13e-06,0.0,0 STARLINK-3145,1 49455U 21104AZ  22210.82148675  .00000713  00000-0  62890-4 0  9993,2 49455  53.2193  19.7458 0001858  40.3819 319.7311 15.08840725 39673,6917.878000000002,95.438,541.029,538.4580000000002,0.0
49455.0,STARLINK-3145,PAYLOAD,2022-07-30 11:36:47,15.08834612,0.0001861,53.2191,16.7719,41.6335,318.4798,8.419700000000001e-05,1.052e-05,0.0,0 STARLINK-3145,1 49455U 21104AZ  22211.48388868  .00001052  00000-0  84197-4 0  9997,2 49455  53.2191  16.7719 0001861  41.6335 318.4798 15.08834612 40843,6917.897,95.438,541.049,538.474,0.0
49455.0,STARLINK-3145,PAYLOAD,2022-07-30 17:58:21,15.08826361,0.0001873,53.2192,15.5823,41.5671,318.5463,6.9447000000000015e-06,-1.78e-06,0.0,0 STARLINK-3145,1 49455U 21104AZ  22211.74885760 -.00000178  00000-0  69447-5 0  9990,2 49455  53.2192  15.5823 0001873  41.5671 318.5463 15.08826361 40888,6917.922,95.438,541.0830000000002,538.491,0.0
